ABS-7                   
1 25894U 99046A   26064.62359487  .00000113  00000+0  00000+0 0  9991
2 25894   6.2170  72.0186 0004704 250.2528 269.4113  0.99969283 96049
YAMAL 101               
1 25896U 99047A   26063.15098100 -.00000281  00000+0  00000+0 0  9990
2 25896  14.5991   0.2957 0086576  60.2616 124.8704  0.99872042 96751
YAMAL 102               
1 25897U 99047B   26064.07405965 -.00000011  00000+0  00000+0 0  9995
2 25897  13.6096  13.4657 0005302 332.5874 213.1640  0.99995707 96957
SL-12 R/B(2)            
1 25900U 99047E   26064.00669787 -.00000035  00000+0  00000+0 0  9993
2 25900  14.5042 359.9882 0101688  59.8268 118.6107  1.00144871 96937
ABS-6                   
1 25924U 99053A   26064.73447642 -.00000126  00000+0  00000+0 0  9991
2 25924   0.0431 257.3511 0003021  68.7917 260.7546  1.00272412 96802
SL-12 R/B(2)            
1 25927U 99053D   26063.70825941 -.00000104  00000+0  00000+0 0  9998
2 25927  17.7324 324.8088 5326597 260.6941  26.9508  1.89347803182441
BLOCK DM-SL R/B         
1 25938U 99056B   26064.16293232 -.00000080  00000+0  00000+0 0  9999
2 25938   1.0421 351.6175 6467866  77.8763 343.2675  2.12160782204607
UFO 10 (USA 146)        
1 25967U 99063A   26064.55968014 -.00000192  00000+0  00000+0 0  9993
2 25967   9.8499  27.7851 0005298 295.4637  18.7027  1.00273577 96305
XMM-NEWTON              
1 25989U 99066A   26061.64181856  .00000062  00000+0  00000+0 0  9993
2 25989  65.0189 284.3763 4712552  66.8130 359.9781  0.50131664 22470
ARIANE 5 R/B            
1 25990U 99066B   26065.15380110 -.00000078  00000+0  00000+0 0  9997
2 25990  71.2431 305.7831 6223195 111.3555   0.3512  0.55304823 24783
COSMOS 2368             
1 26042U 99073A   26063.87602790 -.00000849  00000+0  00000+0 0  9998
2 26042  66.9944 303.5317 6381062 163.8707 233.8087  2.00414348191833
SL-6 R/B(2)             
1 26045U 99073D   26064.20366030  .00016718  16164-5  14773-2 0  9993
2 26045  62.3058 138.6552 7479416 204.2319  84.5033  2.06313138194983
IABS R/B                
1 26054U 00001C   26062.20050918 -.00000237  00000+0  00000+0 0  9990
2 26054  14.0948   0.3828 0028899 331.5541  28.2969  1.01178299 25016
GALAXY 10R (G-10R)      
1 26056U 00002A   26064.35603770 -.00000233  00000+0  00000+0 0  9997
2 26056  12.0100  32.0016 0004011 207.8515 344.7566  0.99638923 95290
GARUDA 1                
1 26089U 00011A   26064.49255429 -.00000090  00000+0  00000+0 0  9993
2 26089   9.3994  65.1485 0005221 245.5399 292.1686  0.99904177 40629
SL-12 R/B(2)            
1 26090U 00011B   26064.70154050 -.00000203  00000+0  00000+0 0  9993
2 26090  16.1470 242.4100 5338808 295.3729 328.0489  1.90707843181523
SL-12 R/B(2)            
1 26101U 00013D   26064.48319425  .00000046  00000+0  00000+0 0  9996
2 26101  14.3083   1.6082 0006354  60.5682 130.0494  1.00760092 95597
