[{"OBJECT_NAME":"ABS-7","OBJECT_ID":"1999-046A","EPOCH":"2026-03-05T14:57:58.596768","MEAN_MOTION":0.99969283,"ECCENTRICITY":0.0004704,"INCLINATION":6.217,"RA_OF_ASC_NODE":72.0186,"ARG_OF_PERICENTER":250.2528,"MEAN_ANOMALY":269.4113,"EPHEMERIS_TYPE":0,"CLASSIFICATION_TYPE":"U","NORAD_CAT_ID":25894,"ELEMENT_SET_NO":999,"REV_AT_EPOCH":9604,"BSTAR":0,"MEAN_MOTION_DOT":1.13e-6,"MEAN_MOTION_DDOT":0},{"OBJECT_NAME":"YAMAL 101","OBJECT_ID":"1999-047A","EPOCH":"2026-03-04T03:37:24.758400","MEAN_MOTION":0.99872042,"ECCENTRICITY":0.00865766,"INCLINATION":14.5991,"RA_OF_ASC_NODE":0.2957,"ARG_OF_PERICENTER":60.2616,"MEAN_ANOMALY":124.8704,"EPHEMERIS_TYPE":0,"CLASSIFICATION_TYPE":"U","NORAD_CAT_ID":25896,"ELEMENT_SET_NO":999,"REV_AT_EPOCH":9675,"BSTAR":0,"MEAN_MOTION_DOT":-2.81e-6,"MEAN_MOTION_DDOT":0},{"OBJECT_NAME":"YAMAL 102","OBJECT_ID":"1999-047B","EPOCH":"2026-03-05T01:46:38.753760","MEAN_MOTION":0.99995707,"ECCENTRICITY":0.0005302,"INCLINATION":13.6096,"RA_OF_ASC_NODE":13.4657,"ARG_OF_PERICENTER":332.5874,"MEAN_ANOMALY":213.164,"EPHEMERIS_TYPE":0,"CLASSIFICATION_TYPE":"U","NORAD_CAT_ID":25897,"ELEMENT_SET_NO":999,"REV_AT_EPOCH":9695,"BSTAR":0,"MEAN_MOTION_DOT":-1.1e-7,"MEAN_MOTION_DDOT":0},{"OBJECT_NAME":"SL-12 R/B(2)","OBJECT_ID":"1999-047E","EPOCH":"2026-03-05T00:09:38.695968","MEAN_MOTION":1.00144871,"ECCENTRICITY":0.01016884,"INCLINATION":14.5042,"RA_OF_ASC_NODE":359.9882,"ARG_OF_PERICENTER":59.8268,"MEAN_ANOMALY":118.6107,"EPHEMERIS_TYPE":0,"CLASSIFICATION_TYPE":"U","NORAD_CAT_ID":25900,"ELEMENT_SET_NO":999,"REV_AT_EPOCH":9693,"BSTAR":0,"MEAN_MOTION_DOT":-3.5e-7,"MEAN_MOTION_DDOT":0},{"OBJECT_NAME":"ABS-6","OBJECT_ID":"1999-053A","EPOCH":"2026-03-05T17:37:38.762688","MEAN_MOTION":1.00272412,"ECCENTRICITY":0.0003021,"INCLINATION":0.0431,"RA_OF_ASC_NODE":257.3511,"ARG_OF_PERICENTER":68.7917,"MEAN_ANOMALY":260.7546,"EPHEMERIS_TYPE":0,"CLASSIFICATION_TYPE":"U","NORAD_CAT_ID":25924,"ELEMENT_SET_NO":999,"REV_AT_EPOCH":9680,"BSTAR":0,"MEAN_MOTION_DOT":-1.26e-6,"MEAN_MOTION_DDOT":0},{"OBJECT_NAME":"SL-12 R/B(2)","OBJECT_ID":"1999-053D","EPOCH":"2026-03-04T16:59:53.613024","MEAN_MOTION":1.89347803,"ECCENTRICITY":0.53265978,"INCLINATION":17.7324,"RA_OF_ASC_NODE":324.8088,"ARG_OF_PERICENTER":260.6941,"MEAN_ANOMALY":26.9508,"EPHEMERIS_TYPE":0,"CLASSIFICATION_TYPE":"U","NORAD_CAT_ID":25927,"ELEMENT_SET_NO":999,"REV_AT_EPOCH":18244,"BSTAR":0,"MEAN_MOTION_DOT":-1.04e-6,"MEAN_MOTION_DDOT":0},{"OBJECT_NAME":"BLOCK DM-SL R/B","OBJECT_ID":"1999-056B","EPOCH":"2026-03-05T03:54:37.352448","MEAN_MOTION":2.12160782,"ECCENTRICITY":0.6467866,"INCLINATION":1.0421,"RA_OF_ASC_NODE":351.6175,"ARG_OF_PERICENTER":77.8763,"MEAN_ANOMALY":343.2675,"EPHEMERIS_TYPE":0,"CLASSIFICATION_TYPE":"U","NORAD_CAT_ID":25938,"ELEMENT_SET_NO":999,"REV_AT_EPOCH":20460,"BSTAR":0,"MEAN_MOTION_DOT":-8.0e-7,"MEAN_MOTION_DDOT":0},{"OBJECT_NAME":"UFO 10 (USA 146)","OBJECT_ID":"1999-063A","EPOCH":"2026-03-05T13:25:56.364096","MEAN_MOTION":1.00273577,"ECCENTRICITY":0.0005298,"INCLINATION":9.8499,"RA_OF_ASC_NODE":27.7851,"ARG_OF_PERICENTER":295.4637,"MEAN_ANOMALY":18.7027,"EPHEMERIS_TYPE":0,"CLASSIFICATION_TYPE":"U","NORAD_CAT_ID":25967,"ELEMENT_SET_NO":999,"REV_AT_EPOCH":9630,"BSTAR":0,"MEAN_MOTION_DOT":-1.92e-6,"MEAN_MOTION_DDOT":0},{"OBJECT_NAME":"XMM-NEWTON","OBJECT_ID":"1999-066A","EPOCH":"2026-03-02T15:24:13.123584","MEAN_MOTION":0.50131664,"ECCENTRICITY":0.47125523,"INCLINATION":65.0189,"RA_OF_ASC_NODE":284.3763,"ARG_OF_PERICENTER":66.813,"MEAN_ANOMALY":359.9781,"EPHEMERIS_TYPE":0,"CLASSIFICATION_TYPE":"U","NORAD_CAT_ID":25989,"ELEMENT_SET_NO":999,"REV_AT_EPOCH":2247,"BSTAR":0,"MEAN_MOTION_DOT":6.2e-7,"MEAN_MOTION_DDOT":0},{"OBJECT_NAME":"ARIANE 5 R/B","OBJECT_ID":"1999-066B","EPOCH":"2026-03-06T03:41:28.415040","MEAN_MOTION":0.55304823,"ECCENTRICITY":0.6223195,"INCLINATION":71.2431,"RA_OF_ASC_NODE":305.7831,"ARG_OF_PERICENTER":111.3555,"MEAN_ANOMALY":0.3512,"EPHEMERIS_TYPE":0,"CLASSIFICATION_TYPE":"U","NORAD_CAT_ID":25990,"ELEMENT_SET_NO":999,"REV_AT_EPOCH":2478,"BSTAR":0,"MEAN_MOTION_DOT":-7.8e-7,"MEAN_MOTION_DDOT":0},{"OBJECT_NAME":"COSMOS 2368","OBJECT_ID":"1999-073A","EPOCH":"2026-03-04T21:01:28.810560","MEAN_MOTION":2.00414348,"ECCENTRICITY":0.63810627,"INCLINATION":66.9944,"RA_OF_ASC_NODE":303.5317,"ARG_OF_PERICENTER":163.8707,"MEAN_ANOMALY":233.8087,"EPHEMERIS_TYPE":0,"CLASSIFICATION_TYPE":"U","NORAD_CAT_ID":26042,"ELEMENT_SET_NO":999,"REV_AT_EPOCH":19183,"BSTAR":0,"MEAN_MOTION_DOT":-8.49e-6,"MEAN_MOTION_DDOT":0},{"OBJECT_NAME":"SL-6 R/B(2)","OBJECT_ID":"1999-073D","EPOCH":"2026-03-05T04:53:16.249920","MEAN_MOTION":2.06313138,"ECCENTRICITY":0.7479416,"INCLINATION":62.3058,"RA_OF_ASC_NODE":138.6552,"ARG_OF_PERICENTER":204.2319,"MEAN_ANOMALY":84.5033,"EPHEMERIS_TYPE":0,"CLASSIFICATION_TYPE":"U","NORAD_CAT_ID":26045,"ELEMENT_SET_NO":999,"REV_AT_EPOCH":19498,"BSTAR":0.0014773,"MEAN_MOTION_DOT":0.00016718,"MEAN_MOTION_DDOT":1.6164e-6},{"OBJECT_NAME":"IABS R/B","OBJECT_ID":"2000-001C","EPOCH":"2026-03-03T04:48:43.993152","MEAN_MOTION":1.01178299,"ECCENTRICITY":0.00288998,"INCLINATION":14.0948,"RA_OF_ASC_NODE":0.3828,"ARG_OF_PERICENTER":331.5541,"MEAN_ANOMALY":28.2969,"EPHEMERIS_TYPE":0,"CLASSIFICATION_TYPE":"U","NORAD_CAT_ID":26054,"ELEMENT_SET_NO":999,"REV_AT_EPOCH":2501,"BSTAR":0,"MEAN_MOTION_DOT":-2.37e-6,"MEAN_MOTION_DDOT":0},{"OBJECT_NAME":"GALAXY 10R (G-10R)","OBJECT_ID":"2000-002A","EPOCH":"2026-03-05T08:32:41.657280","MEAN_MOTION":0.99638923,"ECCENTRICITY":0.0004011,"INCLINATION":12.01,"RA_OF_ASC_NODE":32.0016,"ARG_OF_PERICENTER":207.8515,"MEAN_ANOMALY":344.7566,"EPHEMERIS_TYPE":0,"CLASSIFICATION_TYPE":"U","NORAD_CAT_ID":26056,"ELEMENT_SET_NO":999,"REV_AT_EPOCH":9529,"BSTAR":0,"MEAN_MOTION_DOT":-2.33e-6,"MEAN_MOTION_DDOT":0},{"OBJECT_NAME":"GARUDA 1","OBJECT_ID":"2000-011A","EPOCH":"2026-03-05T11:49:16.690656","MEAN_MOTION":0.99904177,"ECCENTRICITY":0.0005221,"INCLINATION":9.3994,"RA_OF_ASC_NODE":65.1485,"ARG_OF_PERICENTER":245.5399,"MEAN_ANOMALY":292.1686,"EPHEMERIS_TYPE":0,"CLASSIFICATION_TYPE":"U","NORAD_CAT_ID":26089,"ELEMENT_SET_NO":999,"REV_AT_EPOCH":4062,"BSTAR":0,"MEAN_MOTION_DOT":-9.0e-7,"MEAN_MOTION_DDOT":0},{"OBJECT_NAME":"SL-12 R/B(2)","OBJECT_ID":"2000-011B","EPOCH":"2026-03-05T16:50:13.099200","MEAN_MOTION":1.90707843,"ECCENTRICITY":0.5338808,"INCLINATION":16.147,"RA_OF_ASC_NODE":242.41,"ARG_OF_PERICENTER":295.3729,"MEAN_ANOMALY":328.0489,"EPHEMERIS_TYPE":0,"CLASSIFICATION_TYPE":"U","NORAD_CAT_ID":26090,"ELEMENT_SET_NO":999,"REV_AT_EPOCH":18152,"BSTAR":0,"MEAN_MOTION_DOT":-2.03e-6,"MEAN_MOTION_DDOT":0},{"OBJECT_NAME":"SL-12 R/B(2)","OBJECT_ID":"2000-013D","EPOCH":"2026-03-05T11:35:47.983200","MEAN_MOTION":1.00760092,"ECCENTRICITY":0.0006354,"INCLINATION":14.3083,"RA_OF_ASC_NODE":1.6082,"ARG_OF_PERICENTER":60.5682,"MEAN_ANOMALY":130.0494,"EPHEMERIS_TYPE":0,"CLASSIFICATION_TYPE":"U","NORAD_CAT_ID":26101,"ELEMENT_SET_NO":999,"REV_AT_EPOCH":9559,"BSTAR":0,"MEAN_MOTION_DOT":4.6e-7,"MEAN_MOTION_DDOT":0}]
